ID,Address,Suburb,Price,Type,Date,Rooms,Bathroom,Car,LandSize,Age,Latitude,Longitude,train_station_id,distance_to_train_station,travel_min_to_CBD,over_priced?,crime_A_average,crime_B_average,crime_C_average,closest_primary_school,distance_to_closest_primary,primary_school_ranking,closest_secondary_school,distance_to_closest secondary,secondary_school_ranking
ID601544222,1 Bruce St,BRIGHTON EAST,1655000.0,h,12/08/2017,4,2.0,4.0,651.0,111.0,-37.90296,145.02261,19941,1493.7557350614622,32.416666666666664,False,1841.6666666666667,9184.666666666666,533.3333333333334,Gardenvale Primary School,692.3972238066578,138,Divrei Emineh,1097.6813198676618,not ranked
ID545116239,121 Leila Rd,CARNEGIE,1500000.0,h,16/09/2017,3,2.0,2.0,603.0,12.0,-37.90206,145.05598,19941,1443.2704346085454,32.416666666666664,False,1412.0,6364.0,699.3333333333334,McKinnon Primary School,722.9922872281115,not ranked,McKinnon Secondary College,1304.4249570028776,48
ID232763072,1 Rotorua St,CAULFIELD SOUTH,1012000.0,h,7/05/2016,2,1.0,1.0,0.0,109.0,-37.9002,145.02700000000004,19941,1157.5304254406778,32.416666666666664,False,2489.6666666666665,11817.333333333334,1268.6666666666667,Caulfield South Primary School,643.9071401908077,355,Divrei Emineh,804.4371246193652,not ranked
ID909255676,18b Marara Rd,CAULFIELD SOUTH,1115000.0,h,22/08/2016,2,1.0,1.0,402.0,14.0,-37.8967,145.0313,19941,1028.917612457316,32.416666666666664,True,659.0,5219.333333333333,338.3333333333333,Caulfield South Primary School,166.9798345193041,355,Divrei Emineh,836.911665145469,not ranked
ID946722582,28 Garfield Av,ORMOND,1450000.0,h,23/09/2017,4,2.0,2.0,590.0,79.0,-37.90433,145.05163000000005,19941,1062.7812877482834,32.416666666666664,False,313.3333333333333,545.3333333333334,65.66666666666667,McKinnon Primary School,426.4462057335241,not ranked,McKinnon Secondary College,917.4344490469823,48
ID515416787,303 Bambra Rd,CAULFIELD SOUTH,1160500.0,h,8/10/2016,3,2.0,1.0,358.0,89.0,-37.8965,145.0269,19941,1343.607316642374,32.416666666666664,False,81.66666666666667,222.33333333333334,15.666666666666666,Caulfield South Primary School,369.56231346593273,355,Japanese School of Melbourne,798.4926629521514,not ranked
ID351899098,245 Grange Rd,ORMOND,1500000.0,h,16/04/2016,4,2.0,2.0,862.0,49.0,-37.8993,145.0447,19941,623.8797590945265,32.416666666666664,False,1363.6666666666667,6287.666666666667,564.3333333333334,Kilvington Grammar School,307.0014249978559,61,Kilvington Grammar School,307.0014249978559,37
ID505835597,1/38 Neville St,CARNEGIE,1170000.0,u,10/09/2016,3,1.0,2.0,0.0,94.0,-37.8977,145.0493,19941,1048.9904698565115,32.416666666666664,False,71.0,261.0,20.0,Glen Huntly Primary School,513.8670481849513,290,Kilvington Grammar School,738.4056408670859,37
ID464809705,36 Clarence St,BRUNSWICK EAST,1305000.0,h,1/07/2017,2,1.0,0.0,315.0,20.0,-37.76386,144.97783,19967,1536.769421973619,26.0,False,959.0,4476.666666666667,324.0,Brunswick East Primary School,247.32525441290386,not ranked,Sydney Road Community School,1546.5395369102275,447
ID604428965,251 Albion St,BRUNSWICK,1650000.0,h,29/04/2017,4,2.0,4.0,670.0,59.0,-37.7602,144.9591,19967,181.35098199372604,26.0,False,1253.6666666666667,7401.333333333333,484.6666666666667,Brunswick North Primary School,764.0756427411537,not ranked,Sydney Road Community School,1084.4245423430125,447
ID127578650,3/15 Mitchell St,BRUNSWICK,735000.0,u,6/05/2017,2,1.0,2.0,173.0,49.0,-37.7586,144.9653,19967,501.51660063209056,26.0,False,1479.3333333333333,4398.666666666667,502.0,St Margaret Mary's School,259.6451476890152,483,Sydney Road Community School,1270.8128461619942,447
ID155047497,26 MacFarland St,BRUNSWICK,1310000.0,h,12/08/2017,3,1.0,1.0,302.0,109.0,-37.76085,144.95834,19967,210.85094256939095,26.0,False,313.3333333333333,545.3333333333334,65.66666666666667,Brunswick North Primary School,705.1934620154508,not ranked,Sydney Road Community School,1032.227275433,447
ID949851883,44 Mitchell St,BRUNSWICK,1300000.0,h,15/07/2017,5,2.0,0.0,479.0,99.0,-37.75915,144.96755,19967,647.5629446539276,26.0,False,647.0,2861.3333333333335,222.66666666666666,St Margaret Mary's School,84.38052643352403,483,Sydney Road Community School,1275.1430559884386,447
ID667344119,43 Mitchell St,BRUNSWICK,1275000.0,h,23/09/2017,4,1.0,2.0,518.0,139.0,-37.75883,144.96749,19967,656.3885316395409,26.0,False,1412.0,6364.0,699.3333333333334,St Margaret Mary's School,70.42322399268214,483,Sydney Road Community School,1305.9911013490032,447
ID420848836,7 Garnet St,BRUNSWICK,1053000.0,h,27/06/2016,3,1.0,1.0,343.0,94.0,-37.7589,144.9529,19967,732.9695014677047,26.0,True,71.0,261.0,20.0,Brunswick North Primary School,241.1043284381136,not ranked,Brunswick Secondary College,1348.5380396760133,211
ID511724746,154 Brunswick Rd,BRUNSWICK,1050000.0,h,17/09/2016,3,1.0,1.0,239.0,109.0,-37.7776,144.963,19969,476.04844344556545,23.0,False,1683.6666666666667,8938.666666666666,509.3333333333333,Princes Hill Primary School,546.4342397241496,not ranked,Princes Hill Secondary College,678.5814028230776,not ranked
ID562890608,14/1102 Lygon St,CARLTON NORTH,437000.0,u,24/09/2016,1,1.0,1.0,0.0,49.0,-37.7798,144.9707,19969,1182.6470157027732,23.0,False,659.0,5219.333333333333,338.3333333333333,Brunswick South Primary School,202.43191592851662,448,Princes Hill Secondary College,645.5599199678047,not ranked
ID708501886,3/14 Oconnor St,BRUNSWICK EAST,771000.0,t,28/05/2016,2,2.0,2.0,0.0,79.0,-37.7736,144.9725,19969,1222.5405183023015,23.0,False,555.6666666666666,1129.0,160.66666666666666,Our Lady Help of Christians School,561.4744350883942,108,Sydney Road Community School,1030.974543357783,447
ID754631041,41 Barkly St,BRUNSWICK EAST,1679000.0,h,19/11/2016,3,2.0,0.0,326.0,99.0,-37.7776,144.9751,19969,1470.5359199504076,23.0,False,1683.6666666666667,8938.666666666666,509.3333333333333,Brunswick South Primary School,256.89293809954586,448,Princes Hill Secondary College,1101.5959129283126,not ranked
ID715767723,5 Black St,BRUNSWICK,1700000.0,h,18/06/2016,3,2.0,1.0,0.0,74.0,-37.7763,144.9597,19969,169.8348471104069,23.0,True,703.6666666666666,1502.0,135.66666666666666,Princes Hill Primary School,868.7210554935527,not ranked,Brunswick Secondary College,729.2227673727513,211
ID699934874,69 Glenlyon Rd,BRUNSWICK,1210000.0,h,28/08/2016,3,2.0,1.0,280.0,129.0,-37.7719,144.9661,19969,734.9223792987032,23.0,False,271.6666666666667,771.6666666666666,74.0,Brunswick South Primary School,945.6935322655161,448,Sydney Road Community School,445.513314410034,447
ID960935236,113 Glenlyon Rd,BRUNSWICK,1320000.0,h,15/10/2016,4,2.0,1.0,281.0,99.0,-37.7722,144.9681,19969,881.9770735383761,23.0,False,659.0,5219.333333333333,338.3333333333333,Brunswick South Primary School,822.5128588357449,448,Sydney Road Community School,614.6129104605924,447
ID517432468,23 Bicknell Ct,BROADMEADOWS,673000.0,h,3/09/2017,3,1.0,1.0,659.0,94.0,-37.69404,144.91763999999995,20031,198.96885418159243,38.0,True,502.6666666666667,1662.6666666666667,118.66666666666667,Glenroy Private,1104.9877680950008,not ranked,Penola Catholic College,690.5689541056678,361
ID889515731,82 Cuthbert St,BROADMEADOWS,450000.0,h,22/07/2017,3,1.0,1.0,0.0,59.0,-37.6841,144.92818,22254,763.7112102511524,33.0,False,1245.0,3886.0,447.6666666666667,Meadows Primary School,401.65883689649627,not ranked,Sirius College,660.6254581705919,not ranked
ID335963720,48 Electric St,BROADMEADOWS,637000.0,h,19/08/2017,3,1.0,5.0,670.0,39.0,-37.69215,144.91654,20031,337.32457585230554,38.0,False,1173.6666666666667,8523.666666666666,974.6666666666666,St Dominic's School,1010.8479846444709,82,Penola Catholic College,501.51367334361606,361
ID881823003,73 Augustine Tce,GLENROY,651000.0,h,27/05/2017,4,1.0,2.0,587.0,39.0,-37.69897,144.90998000000005,20031,670.830451638712,38.0,False,885.0,1901.0,227.66666666666666,Glenroy West Primary School,682.8172194376118,not ranked,Penola Catholic College,1436.2911589468154,361
ID249890599,39 Emu Pde,JACANA,551000.0,h,4/03/2017,3,1.0,0.0,610.0,64.0,-37.6885,144.9092,20031,942.340923013018,38.0,False,84.33333333333333,293.3333333333333,23.0,Broadmeadows Valley Primary School,899.9472075198166,not ranked,Penola Catholic College,801.5786024151969,361
ID521523005,118 Bindi St,GLENROY,500000.0,h,25/02/2017,3,1.0,4.0,677.0,44.0,-37.695,144.9271,20031,990.9901801768266,38.0,False,1097.6666666666667,5916.0,553.3333333333334,Glenroy Private,362.9158304087713,not ranked,Glenroy Private,362.9158304087713,not ranked
ID407280621,65 Farview St,GLENROY,762700.0,h,25/02/2017,3,1.0,4.0,597.0,59.0,-37.7097,144.9351,20033,1507.8716842165127,34.0,True,84.66666666666667,371.6666666666667,13.0,Westbreen Primary School,734.4377646695606,321,Pascoe Vale Girls Secondary College,876.1025240728256,not ranked
ID196121305,91 Princess St,KEW,2800000.0,h,23/04/2016,4,1.0,0.0,919.0,27.0,-37.8012,145.0297,19904,2332.5861338984596,15.703703703703704,False,824.6666666666666,1890.3333333333333,159.33333333333334,Kew Primary School,422.87149134005705,356,Trinity Grammar School Kew,1124.6233808031195,not ranked
ID738865863,109/311 Burwood Rd,HAWTHORN,370000.0,u,28/08/2016,1,1.0,1.0,0.0,5.0,-37.8222,145.0329,19904,321.70078036949883,15.703703703703704,False,3703.6666666666665,18944.0,2039.3333333333333,Glenferrie Primary School,226.3550480254995,62,Swinburne Senior Secondary College,704.2333682121628,not ranked
ID195196413,12/5 Summerlea Gr,HAWTHORN,275000.0,u,13/05/2017,1,1.0,0.0,479.0,49.0,-37.8292,145.0322,19904,938.0563603984049,15.703703703703704,False,2532.3333333333335,5455.0,713.0,Erasmus Primary School,247.843910774588,not ranked,Scotch College,525.6962825864056,31
ID746929520,75 Derby St,KEW,1910000.0,h,10/12/2016,4,3.0,2.0,277.0,3.0,-37.8007,145.0374,19904,2313.247350166713,15.703703703703704,False,610.0,1743.6666666666667,228.0,Kew Primary School,481.3315628136261,356,Trinity Grammar School Kew,1070.9596453825893,not ranked
